ONEWEB-0656             
1 55817U 23029X   24139.81801710  .00000149  00000+0  33389-3 0  9999
2 55817  87.9221  65.4980 0002087  61.1983 298.9360 13.20773899 60916
ONEWEB-0657             
1 55818U 23029Y   24139.91943743  .00000122  00000+0  27271-3 0  9998
2 55818  87.9136  96.0810 0002586  64.9618 295.1783 13.19726219 58764
ONEWEB-0658             
1 55819U 23029Z   24139.91469929  .00000122  00000+0  27287-3 0  9995
2 55819  87.9137  96.0178 0002626  93.4853 266.6580 13.19726944 58770
ONEWEB-0660             
1 55820U 23029AA  24139.85174961 -.00000084  00000+0 -26018-3 0  9999
2 55820  87.8959  80.7597 0001965  97.5051 262.6302 13.14500901 59641
ONEWEB-0661             
1 55821U 23029AB  24139.88664766  .00000114  00000+0  27403-3 0  9991
2 55821  87.8959  80.8192 0001779  95.9319 264.2014 13.14505630 59637
ONEWEB-0662             
1 55822U 23029AC  24139.84541872  .00000039  00000+0  69564-4 0  9991
2 55822  87.8960  80.8352 0002093  93.7570 266.3799 13.14505213 59677
ONEWEB-0663             
1 55823U 23029AD  24139.81135208  .00000094  00000+0  19982-3 0  9990
2 55823  87.9222  65.5604 0002059  93.4079 266.7290 13.20784124 60908
ONEWEB-0664             
1 55824U 23029AE  24139.88114170  .00000092  00000+0  19467-3 0  9999
2 55824  87.9222  65.5594 0001461  85.1615 274.9685 13.20771209 60917
